{"fetched_at":"2026-07-22T07:09:50.681Z","source":"https://celestrak.org/NORAD/elements/gp.php?NAME=JILIN&FORMAT=JSON","constellation":"jilin-1-early","records":[{"OBJECT_NAME":"JILIN-1","OBJECT_ID":"2015-057D","EPOCH":"2026-07-21T14:29:33.399456","CLASSIFICATION_TYPE":"U","MEAN_MOTION":14.78208022,"ECCENTRICITY":0.00177664,"INCLINATION":97.6524,"RA_OF_ASC_NODE":200.265,"ARG_OF_PERICENTER":146.7545,"MEAN_ANOMALY":213.4787,"EPHEMERIS_TYPE":0,"NORAD_CAT_ID":40961,"ELEMENT_SET_NO":999,"REV_AT_EPOCH":58069,"BSTAR":0.000085560608,"MEAN_MOTION_DOT":0.00000573,"MEAN_MOTION_DDOT":0},{"OBJECT_NAME":"JILIN-1 03","OBJECT_ID":"2017-002B","EPOCH":"2026-07-21T14:44:45.737664","CLASSIFICATION_TYPE":"U","MEAN_MOTION":15.42341436,"ECCENTRICITY":0.00074623,"INCLINATION":97.1959,"RA_OF_ASC_NODE":209.233,"ARG_OF_PERICENTER":62.1564,"MEAN_ANOMALY":298.044,"EPHEMERIS_TYPE":0,"NORAD_CAT_ID":41914,"ELEMENT_SET_NO":999,"REV_AT_EPOCH":52716,"BSTAR":0.00030230037,"MEAN_MOTION_DOT":0.00012967,"MEAN_MOTION_DDOT":0},{"OBJECT_NAME":"JILIN-1 04","OBJECT_ID":"2017-074A","EPOCH":"2026-07-21T14:09:21.917664","CLASSIFICATION_TYPE":"U","MEAN_MOTION":15.43245453,"ECCENTRICITY":0.00051163,"INCLINATION":97.4872,"RA_OF_ASC_NODE":313.1445,"ARG_OF_PERICENTER":83.3906,"MEAN_ANOMALY":276.7924,"EPHEMERIS_TYPE":0,"NORAD_CAT_ID":43022,"ELEMENT_SET_NO":999,"REV_AT_EPOCH":47957,"BSTAR":0.0003008566,"MEAN_MOTION_DOT":0.00013291,"MEAN_MOTION_DDOT":0},{"OBJECT_NAME":"JILIN-1 05","OBJECT_ID":"2017-074B","EPOCH":"2026-07-21T15:00:45.421344","CLASSIFICATION_TYPE":"U","MEAN_MOTION":15.34351591,"ECCENTRICITY":0.00065828,"INCLINATION":97.4876,"RA_OF_ASC_NODE":309.2609,"ARG_OF_PERICENTER":106.9431,"MEAN_ANOMALY":253.2534,"EPHEMERIS_TYPE":0,"NORAD_CAT_ID":43023,"ELEMENT_SET_NO":999,"REV_AT_EPOCH":47928,"BSTAR":0.00022895008,"MEAN_MOTION_DOT":0.00007538,"MEAN_MOTION_DDOT":0},{"OBJECT_NAME":"JILIN-1 06","OBJECT_ID":"2017-074C","EPOCH":"2026-07-21T14:27:51.016320","CLASSIFICATION_TYPE":"U","MEAN_MOTION":15.34047495,"ECCENTRICITY":0.00083775,"INCLINATION":97.4801,"RA_OF_ASC_NODE":306.2003,"ARG_OF_PERICENTER":115.3372,"MEAN_ANOMALY":244.8739,"EPHEMERIS_TYPE":0,"NORAD_CAT_ID":43024,"ELEMENT_SET_NO":999,"REV_AT_EPOCH":47911,"BSTAR":0.00017775804,"MEAN_MOTION_DOT":0.0000578,"MEAN_MOTION_DDOT":0},{"OBJECT_NAME":"JILIN-1 07","OBJECT_ID":"2018-008E","EPOCH":"2026-07-21T13:52:16.947552","CLASSIFICATION_TYPE":"U","MEAN_MOTION":15.35232974,"ECCENTRICITY":0.00062664,"INCLINATION":97.1772,"RA_OF_ASC_NODE":221.6002,"ARG_OF_PERICENTER":299.4294,"MEAN_ANOMALY":60.6324,"EPHEMERIS_TYPE":0,"NORAD_CAT_ID":43159,"ELEMENT_SET_NO":999,"REV_AT_EPOCH":47027,"BSTAR":0.00022757989,"MEAN_MOTION_DOT":0.00007711,"MEAN_MOTION_DDOT":0},{"OBJECT_NAME":"JILIN-1 08","OBJECT_ID":"2018-008F","EPOCH":"2026-07-21T14:28:06.272832","CLASSIFICATION_TYPE":"U","MEAN_MOTION":15.3405782,"ECCENTRICITY":0.00045902,"INCLINATION":97.1809,"RA_OF_ASC_NODE":220.9013,"ARG_OF_PERICENTER":325.4518,"MEAN_ANOMALY":34.6426,"EPHEMERIS_TYPE":0,"NORAD_CAT_ID":43160,"ELEMENT_SET_NO":999,"REV_AT_EPOCH":47022,"BSTAR":0.00016143181,"MEAN_MOTION_DOT":0.00005244,"MEAN_MOTION_DDOT":0},{"OBJECT_NAME":"JILIN-1 09","OBJECT_ID":"2019-005B","EPOCH":"2026-07-21T14:16:50.198016","CLASSIFICATION_TYPE":"U","MEAN_MOTION":15.20775845,"ECCENTRICITY":0.00017268,"INCLINATION":97.4739,"RA_OF_ASC_NODE":297.2708,"ARG_OF_PERICENTER":20.3695,"MEAN_ANOMALY":339.7609,"EPHEMERIS_TYPE":0,"NORAD_CAT_ID":43943,"ELEMENT_SET_NO":999,"REV_AT_EPOCH":41437,"BSTAR":0.00016775898,"MEAN_MOTION_DOT":0.00003626,"MEAN_MOTION_DDOT":0},{"OBJECT_NAME":"JILIN-1 10","OBJECT_ID":"2019-005E","EPOCH":"2026-07-21T14:53:05.273952","CLASSIFICATION_TYPE":"U","MEAN_MOTION":15.26053003,"ECCENTRICITY":0.00091485,"INCLINATION":97.4791,"RA_OF_ASC_NODE":301.4345,"ARG_OF_PERICENTER":149.1067,"MEAN_ANOMALY":211.0712,"EPHEMERIS_TYPE":0,"NORAD_CAT_ID":43946,"ELEMENT_SET_NO":999,"REV_AT_EPOCH":41456,"BSTAR":0.00020539435,"MEAN_MOTION_DOT":0.00005221,"MEAN_MOTION_DDOT":0}]}
