{"epoch":1784710044,"count":18256,"objects":[{"id":"40961","name":"JILIN 1","type":"PAYLOAD","l1":"1 40961U 15057D   26202.60385879  .00000573  00000-0  85561-4 0  9990","l2":"2 40961  97.6524 200.2650 0017766 146.7545 213.4787 14.78208022580693"},{"id":"41914","name":"JILIN-1-03","type":"PAYLOAD","l1":"1 41914U 17002B   26202.61441826  .00012967  00000-0  30230-3 0  9999","l2":"2 41914  97.1959 209.2330 0007462  62.1564 298.0440 15.42341436527164"},{"id":"43022","name":"JILIN-01-04","type":"PAYLOAD","l1":"1 43022U 17074A   26202.58983701  .00013291  00000-0  30086-3 0  9999","l2":"2 43022  97.4872 313.1445 0005116  83.3906 276.7924 15.43245453479578"},{"id":"43023","name":"JILIN-01-05","type":"PAYLOAD","l1":"1 43023U 17074B   26202.62552571  .00007538  00000-0  22895-3 0  9998","l2":"2 43023  97.4876 309.2609 0006583 106.9431 253.2534 15.34351591479281"},{"id":"43024","name":"JILIN-01-06","type":"PAYLOAD","l1":"1 43024U 17074C   26202.60267380  .00005780  00000-0  17776-3 0  9997","l2":"2 43024  97.4801 306.2003 0008377 115.3372 244.8739 15.34047495479116"},{"id":"43159","name":"JILIN-01-07","type":"PAYLOAD","l1":"1 43159U 18008E   26202.57797393  .00007711  00000-0  22758-3 0  9994","l2":"2 43159  97.1772 221.6002 0006266 299.4294  60.6324 15.35232974470271"},{"id":"43160","name":"JILIN-01-08","type":"PAYLOAD","l1":"1 43160U 18008F   26202.60285038  .00005244  00000-0  16143-3 0  9998","l2":"2 43160  97.1809 220.9013 0004590 325.4518  34.6426 15.34057820470228"},{"id":"43943","name":"JILIN-01-09","type":"PAYLOAD","l1":"1 43943U 19005B   26202.59502544  .00003626  00000-0  16776-3 0  9991","l2":"2 43943  97.4739 297.2708 0001727  20.3695 339.7609 15.20775845414371"},{"id":"43946","name":"JILIN-01-10","type":"PAYLOAD","l1":"1 43946U 19005E   26202.62019993  .00005221  00000-0  20539-3 0  9994","l2":"2 43946  97.4791 301.4345 0009148 149.1067 211.0712 15.26053003414564"}]}